*******************************************************************************
Ephemeris / WWW_USER Mon Mar 24 10:52:09 2025 Pasadena, USA      / Horizons    
*******************************************************************************
Target body name: (2018 PN20)                     {source: JPL#3}
Center body name: Earth (399)                     {source: DE441}
Center-site name: Mauna Kea
*******************************************************************************
Start time      : A.D. 2018-Aug-02 05:08:00.0000 UT      
Stop  time      : A.D. 2018-Aug-02 15:48:00.0000 UT      
Step-size       : 1 minutes
*******************************************************************************
Target pole/equ : undefined
Target radii    : undefined                                                    
Center geodetic : 204.5278, 19.8260847, 4.21024   {E-lon(deg),Lat(deg),Alt(km)}
Center cylindric: 204.5278, 6006.35451, 2151.0229 {E-lon(deg),Dxy(km),Dz(km)}
Center pole/equ : ITRF93                          {East-longitude positive}
Center radii    : 6378.137, 6378.137, 6356.752 km {Equator_a, b, pole_c}       
Target primary  : Sun
Vis. interferer : MOON (R_eq= 1737.400) km        {source: DE441}
Rel. light bend : Sun                             {source: DE441}
Rel. lght bnd GM: 1.3271E+11 km^3/s^2                                          
Small-body perts: Yes                             {source: SB441-N16}
Atmos refraction: NO (AIRLESS)
RA format       : HMS
Time format     : CAL 
Calendar mode   : Mixed Julian/Gregorian
RTS-only print  : NO       
EOP file        : eop.250321.p250617                                           
EOP coverage    : DATA-BASED 1962-JAN-20 TO 2025-MAR-21. PREDICTS-> 2025-JUN-16
Units conversion: 1 au= 149597870.700 km, c= 299792.458 km/s, 1 day= 86400.0 s 
Table cut-offs 1: Elevation (-90.0deg=NO ),Airmass (>38.000=NO), Daylight (YES)
Table cut-offs 2: Solar elongation (  0.0,180.0=NO ),Local Hour Angle( 0.0=NO )
Table cut-offs 3: RA/DEC angular rate (     0.0=NO )                           
*******************************************************************************
Initial IAU76/J2000 heliocentric ecliptic osculating elements (au, days, deg.):
  EPOCH=  2458343.5 ! 2018-Aug-13.00 (TDB)         Residual RMS= .1225         
   EC= .3775096637251725   QR= 1.051585063958075   TP= 2458346.3972912203      
   OM= 142.6884316149991   W=  180.4368328240348   IN= 18.91630320954361       
  Equivalent ICRF heliocentric cartesian coordinates (au, au/d):
   X= 8.077039416640637E-01  Y=-6.245728834467501E-01  Z=-2.534674905132982E-01
  VX= 1.177737749455786E-02 VY= 1.576958466977457E-02 VZ=-1.142216194306418E-04
Asteroid physical parameters (km, seconds, rotational period in hours):        
   GM= n.a.                RAD= n.a.               ROTPER= n.a.                
   H= 25.1                 G= .150                 B-V= n.a.                   
                           ALBEDO= n.a.            STYP= n.a.                  
*******************************************************************************
 Date__(UT)__HR:MN     R.A._________(ICRF)_________DEC
******************************************************
$$SOE
 2018-Aug-02 07:11     19 13 19.905408 +41 11 54.24228
 2018-Aug-02 07:12     19 13 20.142947 +41 11 51.87236
 2018-Aug-02 07:13     19 13 20.380441 +41 11 49.50117
 2018-Aug-02 07:14     19 13 20.617889 +41 11 47.12869
 2018-Aug-02 07:15     19 13 20.855292 +41 11 44.75494
 2018-Aug-02 07:16     19 13 21.092651 +41 11 42.37990
 2018-Aug-02 07:17     19 13 21.329966 +41 11 40.00358
 2018-Aug-02 07:18     19 13 21.567237 +41 11 37.62597
 2018-Aug-02 07:19     19 13 21.804466 +41 11 35.24707
 2018-Aug-02 07:20     19 13 22.041653 +41 11 32.86688
 2018-Aug-02 07:21     19 13 22.278798 +41 11 30.48540
 2018-Aug-02 07:22     19 13 22.515903 +41 11 28.10262
 2018-Aug-02 07:23     19 13 22.752967 +41 11 25.71854
 2018-Aug-02 07:24     19 13 22.989991 +41 11 23.33317
 2018-Aug-02 07:25     19 13 23.226976 +41 11 20.94649
 2018-Aug-02 07:26     19 13 23.463923 +41 11 18.55851
 2018-Aug-02 07:27     19 13 23.700832 +41 11 16.16922
 2018-Aug-02 07:28     19 13 23.937703 +41 11 13.77863
 2018-Aug-02 07:29     19 13 24.174538 +41 11 11.38672
 2018-Aug-02 07:30     19 13 24.411337 +41 11 08.99351
 2018-Aug-02 07:31     19 13 24.648100 +41 11 06.59898
 2018-Aug-02 07:32     19 13 24.884828 +41 11 04.20314
 2018-Aug-02 07:33     19 13 25.121521 +41 11 01.80598
 2018-Aug-02 07:34     19 13 25.358181 +41 10 59.40751
 2018-Aug-02 07:35     19 13 25.594808 +41 10 57.00771
 2018-Aug-02 07:36     19 13 25.831402 +41 10 54.60659
 2018-Aug-02 07:37     19 13 26.067965 +41 10 52.20415
 2018-Aug-02 07:38     19 13 26.304496 +41 10 49.80038
 2018-Aug-02 07:39     19 13 26.540996 +41 10 47.39528
 2018-Aug-02 07:40     19 13 26.777467 +41 10 44.98886
 2018-Aug-02 07:41     19 13 27.013908 +41 10 42.58110
 2018-Aug-02 07:42     19 13 27.250319 +41 10 40.17202
 2018-Aug-02 07:43     19 13 27.486703 +41 10 37.76160
 2018-Aug-02 07:44     19 13 27.723059 +41 10 35.34984
 2018-Aug-02 07:45     19 13 27.959388 +41 10 32.93675
 2018-Aug-02 07:46     19 13 28.195691 +41 10 30.52232
 2018-Aug-02 07:47     19 13 28.431968 +41 10 28.10655
 2018-Aug-02 07:48     19 13 28.668219 +41 10 25.68944
 2018-Aug-02 07:49     19 13 28.904446 +41 10 23.27098
 2018-Aug-02 07:50     19 13 29.140650 +41 10 20.85118
 2018-Aug-02 07:51     19 13 29.376829 +41 10 18.43004
 2018-Aug-02 07:52     19 13 29.612986 +41 10 16.00754
 2018-Aug-02 07:53     19 13 29.849121 +41 10 13.58370
 2018-Aug-02 07:54     19 13 30.085235 +41 10 11.15851
 2018-Aug-02 07:55     19 13 30.321328 +41 10 08.73197
 2018-Aug-02 07:56     19 13 30.557400 +41 10 06.30407
 2018-Aug-02 07:57     19 13 30.793453 +41 10 03.87482
 2018-Aug-02 07:58     19 13 31.029487 +41 10 01.44421
 2018-Aug-02 07:59     19 13 31.265503 +41 09 59.01225
 2018-Aug-02 08:00     19 13 31.501501 +41 09 56.57893
 2018-Aug-02 08:01     19 13 31.737481 +41 09 54.14425
 2018-Aug-02 08:02     19 13 31.973446 +41 09 51.70821
 2018-Aug-02 08:03     19 13 32.209394 +41 09 49.27080
 2018-Aug-02 08:04     19 13 32.445328 +41 09 46.83204
 2018-Aug-02 08:05     19 13 32.681247 +41 09 44.39191
 2018-Aug-02 08:06     19 13 32.917151 +41 09 41.95041
 2018-Aug-02 08:07     19 13 33.153043 +41 09 39.50755
 2018-Aug-02 08:08     19 13 33.388922 +41 09 37.06332
 2018-Aug-02 08:09     19 13 33.624789 +41 09 34.61772
 2018-Aug-02 08:10     19 13 33.860644 +41 09 32.17075
 2018-Aug-02 08:11     19 13 34.096489 +41 09 29.72241
 2018-Aug-02 08:12     19 13 34.332324 +41 09 27.27270
 2018-Aug-02 08:13     19 13 34.568149 +41 09 24.82162
 2018-Aug-02 08:14     19 13 34.803965 +41 09 22.36916
 2018-Aug-02 08:15     19 13 35.039773 +41 09 19.91533
 2018-Aug-02 08:16     19 13 35.275573 +41 09 17.46012
 2018-Aug-02 08:17     19 13 35.511367 +41 09 15.00353
 2018-Aug-02 08:18     19 13 35.747154 +41 09 12.54557
 2018-Aug-02 08:19  m  19 13 35.982935 +41 09 10.08623
 2018-Aug-02 08:20  m  19 13 36.218712 +41 09 07.62551
 2018-Aug-02 08:21  m  19 13 36.454484 +41 09 05.16341
 2018-Aug-02 08:22  m  19 13 36.690252 +41 09 02.69992
 2018-Aug-02 08:23  m  19 13 36.926018 +41 09 00.23506
 2018-Aug-02 08:24  m  19 13 37.161780 +41 08 57.76881
 2018-Aug-02 08:25  m  19 13 37.397541 +41 08 55.30118
 2018-Aug-02 08:26  m  19 13 37.633301 +41 08 52.83217
 2018-Aug-02 08:27  m  19 13 37.869060 +41 08 50.36177
 2018-Aug-02 08:28  m  19 13 38.104820 +41 08 47.88998
 2018-Aug-02 08:29  m  19 13 38.340580 +41 08 45.41681
 2018-Aug-02 08:30  m  19 13 38.576341 +41 08 42.94225
 2018-Aug-02 08:31  m  19 13 38.812105 +41 08 40.46631
 2018-Aug-02 08:32  m  19 13 39.047871 +41 08 37.98897
 2018-Aug-02 08:33  m  19 13 39.283640 +41 08 35.51025
 2018-Aug-02 08:34  m  19 13 39.519414 +41 08 33.03014
 2018-Aug-02 08:35  m  19 13 39.755192 +41 08 30.54863
 2018-Aug-02 08:36  m  19 13 39.990975 +41 08 28.06574
 2018-Aug-02 08:37  m  19 13 40.226765 +41 08 25.58146
 2018-Aug-02 08:38  m  19 13 40.462560 +41 08 23.09578
 2018-Aug-02 08:39  m  19 13 40.698363 +41 08 20.60871
 2018-Aug-02 08:40  m  19 13 40.934174 +41 08 18.12025
 2018-Aug-02 08:41  m  19 13 41.169994 +41 08 15.63040
 2018-Aug-02 08:42  m  19 13 41.405822 +41 08 13.13915
 2018-Aug-02 08:43  m  19 13 41.641661 +41 08 10.64652
 2018-Aug-02 08:44  m  19 13 41.877509 +41 08 08.15248
 2018-Aug-02 08:45  m  19 13 42.113369 +41 08 05.65705
 2018-Aug-02 08:46  m  19 13 42.349241 +41 08 03.16023
 2018-Aug-02 08:47  m  19 13 42.585125 +41 08 00.66201
 2018-Aug-02 08:48  m  19 13 42.821022 +41 07 58.16240
 2018-Aug-02 08:49  m  19 13 43.056933 +41 07 55.66139
 2018-Aug-02 08:50  m  19 13 43.292858 +41 07 53.15899
 2018-Aug-02 08:51  m  19 13 43.528798 +41 07 50.65519
 2018-Aug-02 08:52  m  19 13 43.764754 +41 07 48.14999
 2018-Aug-02 08:53  t  19 13 44.000726 +41 07 45.64340
 2018-Aug-02 08:54  m  19 13 44.236715 +41 07 43.13541
 2018-Aug-02 08:55  m  19 13 44.472721 +41 07 40.62602
 2018-Aug-02 08:56  m  19 13 44.708746 +41 07 38.11524
 2018-Aug-02 08:57  m  19 13 44.944790 +41 07 35.60306
 2018-Aug-02 08:58  m  19 13 45.180853 +41 07 33.08948
 2018-Aug-02 08:59  m  19 13 45.416936 +41 07 30.57451
 2018-Aug-02 09:00  m  19 13 45.653041 +41 07 28.05813
 2018-Aug-02 09:01  m  19 13 45.889166 +41 07 25.54037
 2018-Aug-02 09:02  m  19 13 46.125314 +41 07 23.02120
 2018-Aug-02 09:03  m  19 13 46.361485 +41 07 20.50064
 2018-Aug-02 09:04  m  19 13 46.597679 +41 07 17.97868
 2018-Aug-02 09:05  m  19 13 46.833897 +41 07 15.45532
 2018-Aug-02 09:06  m  19 13 47.070140 +41 07 12.93057
 2018-Aug-02 09:07  m  19 13 47.306408 +41 07 10.40442
 2018-Aug-02 09:08  m  19 13 47.542703 +41 07 07.87688
 2018-Aug-02 09:09  m  19 13 47.779024 +41 07 05.34793
 2018-Aug-02 09:10  m  19 13 48.015372 +41 07 02.81759
 2018-Aug-02 09:11  m  19 13 48.251748 +41 07 00.28586
 2018-Aug-02 09:12  m  19 13 48.488153 +41 06 57.75273
 2018-Aug-02 09:13  m  19 13 48.724588 +41 06 55.21820
